IRIDIUM 8 [+]           
1 24792U 97020A   17158.46892501  .00000031  00000-0  40094-5 0  9995
2 24792  86.3940 322.7507 0002233  93.4636 266.6815 14.34218127 51804
IRIDIUM 7 [+]           
1 24793U 97020B   17158.95096743  .00000052  00000-0  11386-4 0  9998
2 24793  86.3945 322.8325 0002200  92.6168 267.5280 14.34217954 51649
IRIDIUM 6 [+]           
1 24794U 97020C   17158.52595476  .00000036  00000-0  59226-5 0  9997
2 24794  86.3942 322.9407 0002205  91.3298 268.8150 14.34215132 51819
IRIDIUM 5 [+]           
1 24795U 97020D   17158.86851715  .00000083  00000-0  22444-4 0  9999
2 24795  86.3936 322.8098 0002112  90.9829 269.1609 14.34216316 51908
IRIDIUM 4 [-]           
1 24796U 97020E   17158.51713050  .00000114  00000-0  32984-4 0  9996
2 24796  86.3939 321.8962 0002241  92.9158 302.2324 14.35157270 51919
IRIDIUM 914 [-]         
1 24836U 97030A   17158.94307872  .00000095  00000-0  24562-4 0  9991
2 24836  86.3921 338.5041 0003500 112.4271 247.7298 14.38761060185519
IRIDIUM 12 [+]          
1 24837U 97030B   17158.47782837 -.00000047  00000-0 -23779-4 0  9996
2 24837  86.3947 354.1555 0002076  86.2411 334.6758 14.34217977 45558
IRIDIUM 10 [+]          
1 24839U 97030D   17158.52705954 -.00000048  00000-0 -24193-4 0  9991
2 24839  86.3946 354.1144 0002108  86.7616 293.6123 14.34217842 45574
IRIDIUM 13 [+]          
1 24840U 97030E   17158.54216938 -.00000045  00000-0 -23201-4 0  9990
2 24840  86.3948 354.2483 0001959  88.9310 271.2110 14.34217667 45565
IRIDIUM 16 [-]          
1 24841U 97030F   17158.93773761  .00000110  00000-0  30732-4 0  9994
2 24841  86.4028 353.8926 0001758  19.3282 340.7981 14.36714787 45998
IRIDIUM 911 [-]         
1 24842U 97030G   17158.48334807  .00000129  00000-0  31011-4 0  9990
2 24842  86.4455 354.8728 0016415 119.1475 241.1372 14.44961680 51544
IRIDIUM 15 [+]          
1 24869U 97034A   17158.63957510  .00000142  00000-0  39758-4 0  9993
2 24869  86.4196  26.0796 0002516  77.5615 282.5865 14.38615286 42297
IRIDIUM 17 [-]          
1 24870U 97034B   17158.62128252  .00000110  00000-0  31187-4 0  9990
2 24870  86.3973  24.1894 0000774 138.5060 221.6196 14.35759064 42803
IRIDIUM 920 [-]         
1 24871U 97034C   17158.01513158  .00000114  00000-0  30105-4 0  9990
2 24871  86.3975  10.6531 0012513  23.5985 336.5785 14.39472250 44891
IRIDIUM 18 [+]          
1 24872U 97034D   17158.63330457  .00000116  00000-0  31347-4 0  9999
2 24872  86.4222  26.0734 0002595  72.4633 287.6848 14.38623073 42542
IRIDIUM 921 [-]         
1 24873U 97034E   17158.90594540  .00000897  00000-0  51073-4 0  9999
2 24873  86.3945  70.3755 0009880  59.1559 301.0650 15.11336283 86414
IRIDIUM 26 [-]          
1 24903U 97043A   17158.83450260  .00000081  00000-0  21382-4 0  9990
2 24903  86.3982 258.6944 0002241  89.4236   3.5257 14.35258406 36150
IRIDIUM 25 [+]          
1 24904U 97043B   17158.72218143  .00000164  00000-0  51526-4 0  9996
2 24904  86.3972 259.3665 0002338  92.1243 268.0220 14.34222947 36264
IRIDIUM 46 [+]          
1 24905U 97043C   17158.73488645  .00000170  00000-0  53597-4 0  9991
2 24905  86.4000 259.3339 0002516  83.1080 277.0402 14.34218810 36472
IRIDIUM 23 [+]          
1 24906U 97043D   17158.32078404  .00000146  00000-0  45220-4 0  9992
2 24906  86.3985 259.5821 0002444  94.9193 321.3019 14.34212386 36421
IRIDIUM 22 [+]          
1 24907U 97043E   17158.70315863  .00000158  00000-0  49411-4 0  9997
2 24907  86.3985 260.0423 0002357  95.2990 264.8475 14.34213173 36487
DUMMY MASS 1 [-]        
1 24925U 97048A   17158.68188881  .00000076  00000-0  55780-5 0  9993
2 24925  86.3369  47.8020 0009412  79.6170 280.6114 14.85134600 69937
DUMMY MASS 2 [-]        
1 24926U 97048B   17158.92105957  .00000076  00000-0  55962-5 0  9996
2 24926  86.3369  48.8060 0010258  84.7043 275.5351 14.84902733 69811
IRIDIUM 29 [-]          
1 24944U 97051A   17158.90494857  .00000169  00000-0  52814-4 0  9993
2 24944  86.3956 290.7475 0002383  98.2653 261.8813 14.34603939 32887
IRIDIUM 32 [+]          
1 24945U 97051B   17158.52267368  .00000097  00000-0  27709-4 0  9992
2 24945  86.3950 291.1277 0002350  94.7389 265.4075 14.34216901 33035
IRIDIUM 33 [-]          
1 24946U 97051C   17158.41102685  .00000064  00000-0  16144-4 0  9996
2 24946  86.3869 290.8132 0005711 276.5827  83.4719 14.33554622 32634
IRIDIUM 28 [-]          
1 24948U 97051E   17158.78712934  .00000073  00000-0  18388-4 0  9994
2 24948  86.3960 290.0342 0002004  86.2830 273.8595 14.35551970 33166
IRIDIUM 30 [+]          
1 24949U 97051F   17158.79545000 -.00000133  00000-0 -54707-4 0  9998
2 24949  86.3965 291.1385 0001643  81.3637 278.7744 14.34217452 32847
IRIDIUM 31 [+]          
1 24950U 97051G   17158.85881413  .00000015  00000-0 -17971-5 0  9999
2 24950  86.3950 291.0815 0002104  95.2573 264.8863 14.34212932 33157
IRIDIUM 19 [+]          
1 24965U 97056A   17158.56407643 -.00000038  00000-0 -20488-4 0  9999
2 24965  86.3938 322.7227 0002115  89.5173 270.6265 14.34216066 31175
IRIDIUM 35 [+]          
1 24966U 97056B   17158.50699378 -.00000036  00000-0 -19913-4 0  9991
2 24966  86.3938 322.7404 0002123  89.2528 270.8911 14.34215956 31147
IRIDIUM 36 [-]          
1 24967U 97056C   17158.93171125  .00000087  00000-0  23325-4 0  9990
2 24967  86.3954 321.6267 0002157  95.4918 264.6525 14.35605807 31534
IRIDIUM 37 [+]          
1 24968U 97056D   17158.55138890 -.00000035  00000-0 -19553-4 0  9994
2 24968  86.3940 322.9081 0002146  90.8713 269.2728 14.34213581 31155
IRIDIUM 34 [+]          
1 24969U 97056E   17158.91925956 -.00000034  00000-0 -19127-4 0  9998
2 24969  86.3942 322.6910 0002137  90.9885 269.1556 14.34213823 31211
IRIDIUM 43 [-]          
1 25039U 97069A   17158.81386425  .00082308 -96299-8  51046-3 0  9993
2 25039  86.4070  24.1628 0325566  80.0687 283.7139 15.29416388 25226
IRIDIUM 41 [+]          
1 25040U 97069B   17158.62174744  .00000117  00000-0  34670-4 0  9992
2 25040  86.3973  25.9617 0002168  81.4536 278.6905 14.34219409 24946
IRIDIUM 40 [-]          
1 25041U 97069C   17158.59005584  .00022316 -90949-6  21601-3 0  9996
2 25041  86.3906  22.1548 0282080 316.1509  41.7647 15.29593908 25493
IRIDIUM 39 [B]          
1 25042U 97069D   17158.12183091  .00000134  00000-0  31652-4 0  9990
2 25042  86.3931  23.5118 0018709 353.1809   6.9136 14.46158237 25260
IRIDIUM 38 [-]          
1 25043U 97069E   17158.95314214  .00000105  00000-0  29227-4 0  9998
2 25043  86.3971  23.0149 0001535  47.4369 312.6958 14.36031783 25148
IRIDIUM 42 [-]          
1 25077U 97077A   17158.00464790  .00000032  00000-0  44175-5 0  9994
2 25077  86.3999  26.1674 0001906  87.2008 272.9406 14.34532404 20736
IRIDIUM 44 [-]          
1 25078U 97077B   17158.54371814  .00000142  00000-0  40446-4 0  9996
2 25078  86.3967  15.5446 0001131  34.7257 325.4015 14.38126043 22244
IRIDIUM 45 [+]          
1 25104U 97082A   17158.71293234  .00000105  00000-0  30559-4 0  9993
2 25104  86.3946 291.1727 0001923  71.8652 288.2753 14.34212194 18750
IRIDIUM 24 [-]          
1 25105U 97082B   17158.66118873  .00000082  00000-0  19816-4 0  9990
2 25105  86.3947 239.4692 0012379  27.1308 333.0535 14.39858259 21234
IRIDIUM 47 [+]          
1 25106U 97082C   17158.74122599  .00000152  00000-0  47140-4 0  9999
2 25106  86.3969 259.2299 0002477  92.5924 267.5556 14.34222585 18726
IRIDIUM 49 [+]          
1 25108U 97082E   17158.78478108  .00000146  00000-0  45085-4 0  9994
2 25108  86.3971 259.3141 0002401  92.6377  66.8058 14.34222567 18769
IRIDIUM 52 [+]          
1 25169U 98010A   17158.57387981 -.00000045  00000-0 -23133-4 0  9998
2 25169  86.3951 354.4117 0002062  86.6509 273.4922 14.34216933 10406
IRIDIUM 56 [+]          
1 25170U 98010B   17158.56749576 -.00000139  00000-0 -56556-4 0  9990
2 25170  86.3946 354.5213 0002031  79.9638 280.1786 14.34215923 10382
IRIDIUM 54 [+]          
1 25171U 98010C   17158.52951152 -.00000046  00000-0 -23391-4 0  9990
2 25171  86.3951 354.4511 0002077  86.8588 273.2845 14.34215095 10547
IRIDIUM 50 [+]          
1 25172U 98010D   17158.56117145 -.00000037  00000-0 -20323-4 0  9993
2 25172  86.3950 354.3941 0002143  88.4814 271.6627 14.34218675 10386
IRIDIUM 53 [+]          
1 25173U 98010E   17158.51051698 -.00000042  00000-0 -21964-4 0  9997
2 25173  86.3951 354.4216 0002059  86.5920 273.5511 14.34215449 10386
IRIDIUM 51 [S]          
1 25262U 98018A   17158.52605564  .00000097  00000-0  27466-4 0  9993
2 25262  86.3945 323.0634 0002519  95.3803 264.7680 14.34213424  9774
IRIDIUM 61 [+]          
1 25263U 98018B   17158.55773714 -.00000040  00000-0 -21344-4 0  9999
2 25263  86.3940 322.8708 0002141  88.8882 271.2559 14.34215911  5489
IRIDIUM 55 [+]          
1 25272U 98019A   17158.42120710  .00000099  00000-0  28268-4 0  9992
2 25272  86.3949 291.0783 0002312  93.8851 266.2609 14.34214736  4663
IRIDIUM 57 [-]          
1 25273U 98019B   17158.80705141  .00000140  00000-0  42827-4 0  9996
2 25273  86.3959 291.2264 0002285  94.9686 265.1770 14.34270537  4509
IRIDIUM 58 [+]          
1 25274U 98019C   17158.82076109  .00000091  00000-0  25345-4 0  9995
2 25274  86.3956 291.4160 0002369  92.6573 267.4893 14.34211637  4515
IRIDIUM 59 [+]          
1 25275U 98019D   17158.82710236  .00000050  00000-0  10657-4 0  9997
2 25275  86.3951 291.2666 0002383  96.9240 263.2227 14.34212705  4808
IRIDIUM 60 [+]          
1 25276U 98019E   17158.76374039  .00000100  00000-0  28497-4 0  9995
2 25276  86.3949 290.9132 0002288  93.8197 266.3260 14.34215657  4508
IRIDIUM 62 [+]          
1 25285U 98021A   17158.23676603  .00000154  00000-0  47997-4 0  9997
2 25285  86.3985 228.0528 0002476  92.1479 268.0000 14.34218417  3599
IRIDIUM 63 [-]          
1 25286U 98021B   17158.67824885  .00000148  00000-0  45400-4 0  9993
2 25286  86.4017 228.2781 0002513  95.2284 356.0864 14.34663246  3400
